OBJECT_NAME,OBJECT_ID,EPOCH,MEAN_MOTION,ECCENTRICITY,INCLINATION,RA_OF_ASC_NODE,ARG_OF_PERICENTER,MEAN_ANOMALY,EPHEMERIS_TYPE,CLASSIFICATION_TYPE,NORAD_CAT_ID,ELEMENT_SET_NO,REV_AT_EPOCH,BSTAR,MEAN_MOTION_DOT,MEAN_MOTION_DDOT
STARLINK-30371,2023-131D,2026-06-07T22:51:50.033088,15.26746098,.00010851,43.0051,30.1333,257.3811,102.6919,0,U,57735,999,15363,-.45162675E-4,-.1471E-4,0
STARLINK-30352,2023-131E,2026-06-07T08:47:49.977024,15.26743608,.00011375,43.0175,33.4738,274.1065,85.9656,0,U,57736,999,15354,.10527438E-3,.2565E-4,0
STARLINK-30344,2023-131F,2026-06-07T22:59:47.647968,15.06427696,.00021706,42.9995,38.7010,217.0140,143.0555,0,U,57737,999,15353,.16914015E-2,.25239E-3,0
STARLINK-30351,2023-131G,2026-06-08T22:25:13.690272,15.27568793,.00014488,43.0048,16.9404,264.1905,95.8782,0,U,57738,999,15387,.38407709E-4,.794E-5,0
STARLINK-30242,2023-131H,2026-06-09T05:44:25.486368,15.27570216,.00013721,43.0039,346.6329,279.8560,80.2137,0,U,57739,999,15425,-.23884503E-4,-.919E-5,0
STARLINK-30331,2023-131J,2026-06-08T02:41:54.855744,15.27574799,.00007934,43.0007,308.7450,263.9780,96.0981,0,U,57740,999,15460,-.91817964E-4,-.2787E-4,0
STARLINK-30364,2023-131K,2026-06-08T22:21:30.690144,15.27578914,.00016025,43.0044,16.9240,276.5093,83.5576,0,U,57741,999,15387,.54995465E-4,.1251E-4,0
STARLINK-30308,2023-131L,2026-06-08T21:16:56.896032,15.27587467,.00020511,43.0016,17.4458,275.5820,84.4798,0,U,57742,999,15387,-.54484232E-4,-.1762E-4,0
STARLINK-30361,2023-131M,2026-06-08T22:30:45.635616,15.27568692,.00015474,43.0030,16.9696,259.4092,100.6586,0,U,57743,999,15386,.14204486E-3,.3647E-4,0
STARLINK-30363,2023-131N,2026-06-06T07:58:13.849536,15.27585396,.0001347,43.0052,17.3397,258.9622,101.1078,0,U,57744,999,15364,.76063578E-4,.1832E-4,0
STARLINK-30362,2023-131P,2026-06-08T21:59:31.299936,15.27581928,.00005745,43.0114,17.6561,115.8536,244.2375,0,U,57745,999,15386,.26068914E-4,.455E-5,0
STARLINK-30350,2023-131Q,2026-06-07T21:45:19.939392,15.27565698,.00036142,42.9697,19.5656,277.9512,82.0929,0,U,57746,999,15375,-.47339376E-4,-.1565E-4,0
STARLINK-30307,2023-131R,2026-06-09T06:58:34.156704,15.27581838,.0000695,43.0171,15.3063,262.3712,97.7061,0,U,57747,999,15392,.11783005E-3,.2982E-4,0
STARLINK-30356,2023-131S,2026-06-07T17:57:21.316032,15.27655577,.00005632,43.0034,23.5242,275.6770,84.4018,0,U,57748,999,15369,.41231432E-3,.11127E-3,0
STARLINK-30366,2023-131T,2026-06-08T22:51:29.944224,15.25904665,.00017624,43.0019,20.4918,267.5844,92.4806,0,U,57749,999,15383,.59114579E-4,.1289E-4,0
STARLINK-30357,2023-131U,2026-06-07T22:49:48.787104,15.27562697,.0000997,43.0063,30.1189,266.8151,93.2587,0,U,57750,999,15362,.2725896E-5,-.187E-5,0
STARLINK-30370,2023-131V,2026-06-08T19:53:15.532800,15.31037937,.0003928,43.0010,1.6974,264.1676,95.8730,0,U,57751,999,15404,.99669013E-3,.3037E-3,0
STARLINK-30368,2023-131W,2026-06-09T07:07:35.919264,15.27701645,.00019096,42.9957,15.3217,314.9450,45.1247,0,U,57752,999,15392,-.1195297E-2,-.33131E-3,0
STARLINK-30343,2023-131X,2026-06-08T08:09:12.330720,15.27569581,.00008569,43.0010,27.8721,296.0566,64.0197,0,U,57753,999,15369,-.68643841E-4,-.215E-4,0
WILDFIRE 4,2023-133A,2026-06-09T01:22:56.486208,13.86355925,.00102928,81.0025,13.9871,22.0199,338.1398,0,U,57756,999,13999,.67044615E-4,.89E-6,0
BB4,2023-133B,2026-06-05T00:39:21.912480,14.32069411,.00077281,80.9997,12.6553,18.3530,341.7930,0,U,57757,999,13972,.17054299E-3,.47E-5,0
WILDFIRE 3,2023-133C,2026-06-09T02:03:57.858912,13.86278019,.00090322,80.9972,13.7716,21.9690,338.1852,0,U,57758,999,13997,.62551217E-4,.83E-6,0
BB3,2023-133D,2026-06-08T21:16:26.942880,14.57102535,.01119656,80.9942,358.9783,329.2488,30.2176,0,U,57760,999,14085,.10736848E-3,.541E-5,0
WILDFIRE 7,2023-133E,2026-06-09T02:56:23.618976,13.85101453,.00063309,80.9995,15.6874,59.5174,300.6607,0,U,57761,999,13987,.78069222E-4,.99E-6,0
CHECKMATE 10,2023-133F,2026-06-09T06:02:15.407808,13.85473301,.00069998,81.0009,15.0286,36.5165,323.6467,0,U,57762,999,13993,-.3363195E-5,.7E-7,0
WILDFIRE 6,2023-133G,2026-06-09T02:07:37.555968,13.85352823,.00065443,80.9958,14.9141,44.2166,315.9513,0,U,57763,999,13989,.64119345E-4,.84E-6,0
WILDFIRE 1,2023-133H,2026-06-09T02:11:44.119968,13.85730076,.0006953,81.0004,14.7566,29.6229,330.5320,0,U,57764,999,13993,.70895959E-4,.92E-6,0
WILDFIRE 9,2023-133J,2026-06-09T02:46:29.834112,13.85389056,.00067596,81.0045,15.7075,41.2028,318.9637,0,U,57765,999,13990,.16806458E-4,.3E-6,0
WILDFIRE 10,2023-133K,2026-06-09T02:28:17.673312,13.85605581,.00070842,81.0033,15.2461,32.2489,327.9099,0,U,57766,999,13992,.56923294E-4,.76E-6,0
WILDFIRE 2,2023-133L,2026-06-09T02:32:50.468352,13.85303562,.00064623,80.9966,15.1939,51.6353,308.5383,0,U,57767,999,13988,.79964594E-4,.102E-5,0
