STARLINK-30371          
1 57735U 23131D   26158.95266242 -.00001471  00000+0 -45163-4 0  9992
2 57735  43.0051  30.1333 0001085 257.3811 102.6919 15.26746098153630
STARLINK-30352          
1 57736U 23131E   26158.36655066  .00002565  00000+0  10527-3 0  9992
2 57736  43.0175  33.4738 0001137 274.1065  85.9656 15.26743608153544
STARLINK-30344          
1 57737U 23131F   26158.95819037  .00025239  00000+0  16914-2 0  9996
2 57737  42.9995  38.7010 0002170 217.0140 143.0555 15.06427696153539
STARLINK-30351          
1 57738U 23131G   26159.93418623  .00000794  00000+0  38408-4 0  9995
2 57738  43.0048  16.9404 0001448 264.1905  95.8782 15.27568793153875
STARLINK-30242          
1 57739U 23131H   26160.23918387 -.00000919  00000+0 -23885-4 0  9997
2 57739  43.0039 346.6329 0001372 279.8560  80.2137 15.27570216154259
STARLINK-30331          
1 57740U 23131J   26159.11244046 -.00002787  00000+0 -91818-4 0  9994
2 57740  43.0007 308.7450 0000793 263.9780  96.0981 15.27574799154605
STARLINK-30364          
1 57741U 23131K   26159.93160521  .00001251  00000+0  54995-4 0  9998
2 57741  43.0044  16.9240 0001602 276.5093  83.5576 15.27578914153871
STARLINK-30308          
1 57742U 23131L   26159.88676963 -.00001762  00000+0 -54484-4 0  9997
2 57742  43.0016  17.4458 0002051 275.5820  84.4798 15.27587467153873
STARLINK-30361          
1 57743U 23131M   26159.93802819  .00003647  00000+0  14204-3 0  9992
2 57743  43.0030  16.9696 0001547 259.4092 100.6586 15.27568692153863
STARLINK-30363          
1 57744U 23131N   26157.33210474  .00001832  00000+0  76064-4 0  9992
2 57744  43.0052  17.3397 0001347 258.9622 101.1078 15.27585396153640
STARLINK-30362          
1 57745U 23131P   26159.91633449  .00000455  00000+0  26069-4 0  9990
2 57745  43.0114  17.6561 0000574 115.8536 244.2375 15.27581928153862
STARLINK-30350          
1 57746U 23131Q   26158.90648078 -.00001565  00000+0 -47339-4 0  9991
2 57746  42.9697  19.5656 0003614 277.9512  82.0929 15.27565698153752
STARLINK-30307          
1 57747U 23131R   26160.29067311  .00002982  00000+0  11783-3 0  9997
2 57747  43.0171  15.3063 0000695 262.3712  97.7061 15.27581838153927
STARLINK-30356          
1 57748U 23131S   26158.74816338  .00011127  00000+0  41231-3 0  9998
2 57748  43.0034  23.5242 0000563 275.6770  84.4018 15.27655577153692
STARLINK-30366          
1 57749U 23131T   26159.95242991  .00001289  00000+0  59115-4 0  9990
2 57749  43.0019  20.4918 0001762 267.5844  92.4806 15.25904665153839
STARLINK-30357          
1 57750U 23131U   26158.95125911 -.00000187  00000+0  27259-5 0  9995
2 57750  43.0063  30.1189 0000997 266.8151  93.2587 15.27562697153629
STARLINK-30370          
1 57751U 23131V   26159.82865200  .00030370  00000+0  99669-3 0  9993
2 57751  43.0010   1.6974 0003928 264.1676  95.8730 15.31037937154041
STARLINK-30368          
1 57752U 23131W   26160.29694351 -.00033131  00000+0 -11953-2 0  9993
2 57752  42.9957  15.3217 0001909 314.9450  45.1247 15.27701645153929
STARLINK-30343          
1 57753U 23131X   26159.33972605 -.00002150  00000+0 -68644-4 0  9996
2 57753  43.0010  27.8721 0000856 296.0566  64.0197 15.27569581153697
WILDFIRE 4              
1 57756U 23133A   26160.05759822  .00000089  00000+0  67045-4 0  9997
2 57756  81.0025  13.9871 0010292  22.0199 338.1398 13.86355925139997
BB4                     
1 57757U 23133B   26156.02733695  .00000470  00000+0  17054-3 0  9998
2 57757  80.9997  12.6553 0007728  18.3530 341.7930 14.32069411139721
WILDFIRE 3              
1 57758U 23133C   26160.08608633  .00000083  00000+0  62551-4 0  9996
2 57758  80.9972  13.7716 0009032  21.9690 338.1852 13.86278019139979
BB3                     
1 57760U 23133D   26159.88642295  .00000541  00000+0  10737-3 0  9994
2 57760  80.9942 358.9783 0111965 329.2488  30.2176 14.57102535140851
WILDFIRE 7              
1 57761U 23133E   26160.12249559  .00000099  00000+0  78069-4 0  9991
2 57761  80.9995  15.6874 0006330  59.5174 300.6607 13.85101453139873
CHECKMATE 10            
1 57762U 23133F   26160.25156722  .00000007  00000+0 -33632-5 0  9993
2 57762  81.0009  15.0286 0006999  36.5165 323.6467 13.85473301139939
WILDFIRE 6              
1 57763U 23133G   26160.08862912  .00000084  00000+0  64119-4 0  9997
2 57763  80.9958  14.9141 0006544  44.2166 315.9513 13.85352823139898
WILDFIRE 1              
1 57764U 23133H   26160.09148287  .00000092  00000+0  70896-4 0  9999
2 57764  81.0004  14.7566 0006953  29.6229 330.5320 13.85730076139937
WILDFIRE 9              
1 57765U 23133J   26160.11562308  .00000030  00000+0  16806-4 0  9990
2 57765  81.0045  15.7075 0006759  41.2028 318.9637 13.85389056139906
WILDFIRE 10             
1 57766U 23133K   26160.10298233  .00000076  00000+0  56923-4 0  9997
2 57766  81.0033  15.2461 0007084  32.2489 327.9099 13.85605581139929
WILDFIRE 2              
1 57767U 23133L   26160.10613968  .00000102  00000+0  79965-4 0  9995
2 57767  80.9966  15.1939 0006462  51.6353 308.5383 13.85303562139886
